ORBCOMM FM24            
1 25478U 98053D   25031.56728905  .00002824  00000+0  98191-3 0  9990
2 25478  45.0059 196.5982 0002426 226.8747 133.1898 14.37461617377786
ORBCOMM FM25            
1 25479U 98053E   25031.81443670  .00003131  00000+0  10835-2 0  9992
2 25479  45.0054 193.6837 0004188 260.3497  99.6878 14.37451768378119
ORBCOMM FM26            
1 25480U 98053F   25031.46217563  .00002586  00000+0  91884-3 0  9992
2 25480  45.0049 190.8679 0005555 285.8684  74.1551 14.36602644377987
ORBCOMM FM27            
1 25481U 98053G   25031.80392206  .00002949  00000+0  10234-2 0  9991
2 25481  45.0035 193.9753 0001436 192.7510 167.3302 14.37458914378089
ORBCOMM FM28            
1 25482U 98053H   25031.58473628  .00002561  00000+0  89030-3 0  9996
2 25482  45.0047 132.7467 0004308 302.5700  57.4732 14.37721836378698
ORBCOMM FM30            
1 25980U 99065A   25031.32826159  .00002740  00000+0  96760-3 0  9993
2 25980  45.0320  17.2800 0006235  23.1419 336.9709 14.36761419314764
ORBCOMM FM31            
1 25981U 99065B   25031.29707285  .00002738  00000+0  96750-3 0  9994
2 25981  45.0237  10.9655 0003058  34.5181 325.5865 14.36732442314314
ORBCOMM FM32            
1 25982U 99065C   25031.32163312  .00002622  00000+0  94673-3 0  9990
2 25982  45.0160  26.5017 0004660  44.4070 315.7150 14.35765854314929
