<?xml version="1.0" encoding="UTF-8"?>
<ndm xmlns:xsi="http://www.w3.org/2001/XMLSchema-instance" xsi:noNamespaceSchemaLocation="https://sanaregistry.org/r/ndmxml_unqualified/ndmxml-2.0.0-master-2.0.xsd">
<omm id="CCSDS_OMM_VERS" version="2.0">
<header><CREATION_DATE/><ORIGINATOR/></header><body><segment><metadata><OBJECT_NAME>ORBCOMM FM24</OBJECT_NAME><OBJECT_ID>1998-053D</OBJECT_ID><CENTER_NAME>EARTH</CENTER_NAME><REF_FRAME>TEME</REF_FRAME><TIME_SYSTEM>UTC</TIME_SYSTEM><MEAN_ELEMENT_THEORY>SGP4</MEAN_ELEMENT_THEORY></metadata><data><meanElements><EPOCH>2025-01-31T13:36:53.773920</EPOCH><MEAN_MOTION>14.37461617</MEAN_MOTION><ECCENTRICITY>.0002426</ECCENTRICITY><INCLINATION>45.0059</INCLINATION><RA_OF_ASC_NODE>196.5982</RA_OF_ASC_NODE><ARG_OF_PERICENTER>226.8747</ARG_OF_PERICENTER><MEAN_ANOMALY>133.1898</MEAN_ANOMALY></meanElements><tleParameters><EPHEMERIS_TYPE>0</EPHEMERIS_TYPE><CLASSIFICATION_TYPE>U</CLASSIFICATION_TYPE><NORAD_CAT_ID>25478</NORAD_CAT_ID><ELEMENT_SET_NO>999</ELEMENT_SET_NO><REV_AT_EPOCH>37778</REV_AT_EPOCH><BSTAR>.98191E-3</BSTAR><MEAN_MOTION_DOT>.2824E-4</MEAN_MOTION_DOT><MEAN_MOTION_DDOT>0</MEAN_MOTION_DDOT></tleParameters></data></segment></body></omm>
<omm id="CCSDS_OMM_VERS" version="2.0">
<header><CREATION_DATE/><ORIGINATOR/></header><body><segment><metadata><OBJECT_NAME>ORBCOMM FM25</OBJECT_NAME><OBJECT_ID>1998-053E</OBJECT_ID><CENTER_NAME>EARTH</CENTER_NAME><REF_FRAME>TEME</REF_FRAME><TIME_SYSTEM>UTC</TIME_SYSTEM><MEAN_ELEMENT_THEORY>SGP4</MEAN_ELEMENT_THEORY></metadata><data><meanElements><EPOCH>2025-01-31T19:32:47.330880</EPOCH><MEAN_MOTION>14.37451768</MEAN_MOTION><ECCENTRICITY>.0004188</ECCENTRICITY><INCLINATION>45.0054</INCLINATION><RA_OF_ASC_NODE>193.6837</RA_OF_ASC_NODE><ARG_OF_PERICENTER>260.3497</ARG_OF_PERICENTER><MEAN_ANOMALY>99.6878</MEAN_ANOMALY></meanElements><tleParameters><EPHEMERIS_TYPE>0</EPHEMERIS_TYPE><CLASSIFICATION_TYPE>U</CLASSIFICATION_TYPE><NORAD_CAT_ID>25479</NORAD_CAT_ID><ELEMENT_SET_NO>999</ELEMENT_SET_NO><REV_AT_EPOCH>37811</REV_AT_EPOCH><BSTAR>.10835E-2</BSTAR><MEAN_MOTION_DOT>.3131E-4</MEAN_MOTION_DOT><MEAN_MOTION_DDOT>0</MEAN_MOTION_DDOT></tleParameters></data></segment></body></omm>
<omm id="CCSDS_OMM_VERS" version="2.0">
<header><CREATION_DATE/><ORIGINATOR/></header><body><segment><metadata><OBJECT_NAME>ORBCOMM FM26</OBJECT_NAME><OBJECT_ID>1998-053F</OBJECT_ID><CENTER_NAME>EARTH</CENTER_NAME><REF_FRAME>TEME</REF_FRAME><TIME_SYSTEM>UTC</TIME_SYSTEM><MEAN_ELEMENT_THEORY>SGP4</MEAN_ELEMENT_THEORY></metadata><data><meanElements><EPOCH>2025-01-31T11:05:31.974432</EPOCH><MEAN_MOTION>14.36602644</MEAN_MOTION><ECCENTRICITY>.0005555</ECCENTRICITY><INCLINATION>45.0049</INCLINATION><RA_OF_ASC_NODE>190.8679</RA_OF_ASC_NODE><ARG_OF_PERICENTER>285.8684</ARG_OF_PERICENTER><MEAN_ANOMALY>74.1551</MEAN_ANOMALY></meanElements><tleParameters><EPHEMERIS_TYPE>0</EPHEMERIS_TYPE><CLASSIFICATION_TYPE>U</CLASSIFICATION_TYPE><NORAD_CAT_ID>25480</NORAD_CAT_ID><ELEMENT_SET_NO>999</ELEMENT_SET_NO><REV_AT_EPOCH>37798</REV_AT_EPOCH><BSTAR>.91884E-3</BSTAR><MEAN_MOTION_DOT>.2586E-4</MEAN_MOTION_DOT><MEAN_MOTION_DDOT>0</MEAN_MOTION_DDOT></tleParameters></data></segment></body></omm>
<omm id="CCSDS_OMM_VERS" version="2.0">
<header><CREATION_DATE/><ORIGINATOR/></header><body><segment><metadata><OBJECT_NAME>ORBCOMM FM27</OBJECT_NAME><OBJECT_ID>1998-053G</OBJECT_ID><CENTER_NAME>EARTH</CENTER_NAME><REF_FRAME>TEME</REF_FRAME><TIME_SYSTEM>UTC</TIME_SYSTEM><MEAN_ELEMENT_THEORY>SGP4</MEAN_ELEMENT_THEORY></metadata><data><meanElements><EPOCH>2025-01-31T19:17:38.865984</EPOCH><MEAN_MOTION>14.37458914</MEAN_MOTION><ECCENTRICITY>.0001436</ECCENTRICITY><INCLINATION>45.0035</INCLINATION><RA_OF_ASC_NODE>193.9753</RA_OF_ASC_NODE><ARG_OF_PERICENTER>192.7510</ARG_OF_PERICENTER><MEAN_ANOMALY>167.3302</MEAN_ANOMALY></meanElements><tleParameters><EPHEMERIS_TYPE>0</EPHEMERIS_TYPE><CLASSIFICATION_TYPE>U</CLASSIFICATION_TYPE><NORAD_CAT_ID>25481</NORAD_CAT_ID><ELEMENT_SET_NO>999</ELEMENT_SET_NO><REV_AT_EPOCH>37808</REV_AT_EPOCH><BSTAR>.10234E-2</BSTAR><MEAN_MOTION_DOT>.2949E-4</MEAN_MOTION_DOT><MEAN_MOTION_DDOT>0</MEAN_MOTION_DDOT></tleParameters></data></segment></body></omm>
<omm id="CCSDS_OMM_VERS" version="2.0">
<header><CREATION_DATE/><ORIGINATOR/></header><body><segment><metadata><OBJECT_NAME>ORBCOMM FM28</OBJECT_NAME><OBJECT_ID>1998-053H</OBJECT_ID><CENTER_NAME>EARTH</CENTER_NAME><REF_FRAME>TEME</REF_FRAME><TIME_SYSTEM>UTC</TIME_SYSTEM><MEAN_ELEMENT_THEORY>SGP4</MEAN_ELEMENT_THEORY></metadata><data><meanElements><EPOCH>2025-01-31T14:02:01.214592</EPOCH><MEAN_MOTION>14.37721836</MEAN_MOTION><ECCENTRICITY>.0004308</ECCENTRICITY><INCLINATION>45.0047</INCLINATION><RA_OF_ASC_NODE>132.7467</RA_OF_ASC_NODE><ARG_OF_PERICENTER>302.5700</ARG_OF_PERICENTER><MEAN_ANOMALY>57.4732</MEAN_ANOMALY></meanElements><tleParameters><EPHEMERIS_TYPE>0</EPHEMERIS_TYPE><CLASSIFICATION_TYPE>U</CLASSIFICATION_TYPE><NORAD_CAT_ID>25482</NORAD_CAT_ID><ELEMENT_SET_NO>999</ELEMENT_SET_NO><REV_AT_EPOCH>37869</REV_AT_EPOCH><BSTAR>.8903E-3</BSTAR><MEAN_MOTION_DOT>.2561E-4</MEAN_MOTION_DOT><MEAN_MOTION_DDOT>0</MEAN_MOTION_DDOT></tleParameters></data></segment></body></omm>
<omm id="CCSDS_OMM_VERS" version="2.0">
<header><CREATION_DATE/><ORIGINATOR/></header><body><segment><metadata><OBJECT_NAME>ORBCOMM FM30</OBJECT_NAME><OBJECT_ID>1999-065A</OBJECT_ID><CENTER_NAME>EARTH</CENTER_NAME><REF_FRAME>TEME</REF_FRAME><TIME_SYSTEM>UTC</TIME_SYSTEM><MEAN_ELEMENT_THEORY>SGP4</MEAN_ELEMENT_THEORY></metadata><data><meanElements><EPOCH>2025-01-31T07:52:41.801376</EPOCH><MEAN_MOTION>14.36761419</MEAN_MOTION><ECCENTRICITY>.0006235</ECCENTRICITY><INCLINATION>45.0320</INCLINATION><RA_OF_ASC_NODE>17.2800</RA_OF_ASC_NODE><ARG_OF_PERICENTER>23.1419</ARG_OF_PERICENTER><MEAN_ANOMALY>336.9709</MEAN_ANOMALY></meanElements><tleParameters><EPHEMERIS_TYPE>0</EPHEMERIS_TYPE><CLASSIFICATION_TYPE>U</CLASSIFICATION_TYPE><NORAD_CAT_ID>25980</NORAD_CAT_ID><ELEMENT_SET_NO>999</ELEMENT_SET_NO><REV_AT_EPOCH>31476</REV_AT_EPOCH><BSTAR>.9676E-3</BSTAR><MEAN_MOTION_DOT>.274E-4</MEAN_MOTION_DOT><MEAN_MOTION_DDOT>0</MEAN_MOTION_DDOT></tleParameters></data></segment></body></omm>
<omm id="CCSDS_OMM_VERS" version="2.0">
<header><CREATION_DATE/><ORIGINATOR/></header><body><segment><metadata><OBJECT_NAME>ORBCOMM FM31</OBJECT_NAME><OBJECT_ID>1999-065B</OBJECT_ID><CENTER_NAME>EARTH</CENTER_NAME><REF_FRAME>TEME</REF_FRAME><TIME_SYSTEM>UTC</TIME_SYSTEM><MEAN_ELEMENT_THEORY>SGP4</MEAN_ELEMENT_THEORY></metadata><data><meanElements><EPOCH>2025-01-31T07:07:47.094240</EPOCH><MEAN_MOTION>14.36732442</MEAN_MOTION><ECCENTRICITY>.0003058</ECCENTRICITY><INCLINATION>45.0237</INCLINATION><RA_OF_ASC_NODE>10.9655</RA_OF_ASC_NODE><ARG_OF_PERICENTER>34.5181</ARG_OF_PERICENTER><MEAN_ANOMALY>325.5865</MEAN_ANOMALY></meanElements><tleParameters><EPHEMERIS_TYPE>0</EPHEMERIS_TYPE><CLASSIFICATION_TYPE>U</CLASSIFICATION_TYPE><NORAD_CAT_ID>25981</NORAD_CAT_ID><ELEMENT_SET_NO>999</ELEMENT_SET_NO><REV_AT_EPOCH>31431</REV_AT_EPOCH><BSTAR>.9675E-3</BSTAR><MEAN_MOTION_DOT>.2738E-4</MEAN_MOTION_DOT><MEAN_MOTION_DDOT>0</MEAN_MOTION_DDOT></tleParameters></data></segment></body></omm>
<omm id="CCSDS_OMM_VERS" version="2.0">
<header><CREATION_DATE/><ORIGINATOR/></header><body><segment><metadata><OBJECT_NAME>ORBCOMM FM32</OBJECT_NAME><OBJECT_ID>1999-065C</OBJECT_ID><CENTER_NAME>EARTH</CENTER_NAME><REF_FRAME>TEME</REF_FRAME><TIME_SYSTEM>UTC</TIME_SYSTEM><MEAN_ELEMENT_THEORY>SGP4</MEAN_ELEMENT_THEORY></metadata><data><meanElements><EPOCH>2025-01-31T07:43:09.101568</EPOCH><MEAN_MOTION>14.35765854</MEAN_MOTION><ECCENTRICITY>.000466</ECCENTRICITY><INCLINATION>45.0160</INCLINATION><RA_OF_ASC_NODE>26.5017</RA_OF_ASC_NODE><ARG_OF_PERICENTER>44.4070</ARG_OF_PERICENTER><MEAN_ANOMALY>315.7150</MEAN_ANOMALY></meanElements><tleParameters><EPHEMERIS_TYPE>0</EPHEMERIS_TYPE><CLASSIFICATION_TYPE>U</CLASSIFICATION_TYPE><NORAD_CAT_ID>25982</NORAD_CAT_ID><ELEMENT_SET_NO>999</ELEMENT_SET_NO><REV_AT_EPOCH>31492</REV_AT_EPOCH><BSTAR>.94673E-3</BSTAR><MEAN_MOTION_DOT>.2622E-4</MEAN_MOTION_DOT><MEAN_MOTION_DDOT>0</MEAN_MOTION_DDOT></tleParameters></data></segment></body></omm>

</ndm>
